NORAD_CAT_ID,OBJECT_NAME,OBJECT_TYPE,EPOCH,MEAN_MOTION,ECCENTRICITY,INCLINATION,RA_OF_ASC_NODE,ARG_OF_PERICENTER,MEAN_ANOMALY,BSTAR,MEAN_MOTION_DOT,MEAN_MOTION_DDOT,TLE_LINE0,TLE_LINE1,TLE_LINE2,SEMIMAJOR_AXIS,PERIOD,APOGEE,PERIGEE,DECAYED
51741.0,STARLINK-3520,PAYLOAD,2023-01-25 05:53:41,15.08846622,0.000134,53.215,34.2863,102.7218,257.3924,0.00015941,2.25e-05,0.0,0 STARLINK-3520,1 51741U 22016AD  23025.24561830  .00002250  00000-0  15941-3 0  9992,2 51741  53.2150  34.2863 0001340 102.7218 257.3924 15.08846622 52653,6917.86,95.437,540.6519999999999,538.798,0.0
51741.0,STARLINK-3520,PAYLOAD,2023-01-25 07:29:04,15.08846653,0.0001259,53.2158,33.9931,89.395,270.7187,0.00030772,4.614e-05,0.0,0 STARLINK-3520,1 51741U 22016AD  23025.31185855  .00004614  00000-0  30772-3 0  9994,2 51741  53.2158  33.9931 0001259  89.3950 270.7187 15.08846653 51557,6917.86,95.437,540.596,538.854,0.0
51741.0,STARLINK-3520,PAYLOAD,2023-01-25 17:01:23,15.08834481,0.000121,53.2154,32.2095,92.2441,267.869,0.00017099,2.434e-05,0.0,0 STARLINK-3520,1 51741U 22016AD  23025.70930198  .00002434  00000-0  17099-3 0  9990,2 51741  53.2154  32.2095 0001210  92.2441 267.8690 15.08834481 52723,6917.897,95.438,540.599,538.925,0.0
51741.0,STARLINK-3520,PAYLOAD,2023-01-26 00:58:19,15.08827301,0.0001415,53.2166,30.7251,103.5155,256.5995,-0.00012052,-2.205e-05,0.0,0 STARLINK-3520,1 51741U 22016AD  23026.04050658 -.00002205  00000-0 -12052-3 0  9994,2 51741  53.2166  30.7251 0001415 103.5155 256.5995 15.08827301 52779,6917.919,95.438,540.763,538.805,0.0
51741.0,STARLINK-3520,PAYLOAD,2023-01-27 00:49:06,15.08847334,0.0001705,53.2185,26.2669,112.1503,247.967,6.0715e-05,6.79e-06,0.0,0 STARLINK-3520,1 51741U 22016AD  23027.03410350  .00000679  00000-0  60715-4 0  9994,2 51741  53.2185  26.2669 0001705 112.1503 247.9670 15.08847334 52927,6917.858,95.437,540.9019999999999,538.543,0.0
51741.0,STARLINK-3520,PAYLOAD,2023-01-27 07:10:39,15.08850062,0.0001336,53.2167,25.0741,106.732,253.3819,0.00036023,5.451e-05,0.0,0 STARLINK-3520,1 51741U 22016AD  23027.29906282  .00005451  00000-0  36023-3 0  9993,2 51741  53.2167  25.0741 0001336 106.7320 253.3819 15.08850062 51850,6917.85,95.437,540.639,538.79,0.0
51741.0,STARLINK-3520,PAYLOAD,2023-01-28 05:26:03,15.08846074,0.0001165,53.2159,20.9115,88.5833,271.5292,0.00019102,2.754e-05,0.0,0 STARLINK-3520,1 51741U 22016AD  23028.22642455  .00002754  00000-0  19102-3 0  9998,2 51741  53.2159  20.9115 0001165  88.5833 271.5292 15.08846074 53101,6917.861999999999,95.437,540.533,538.9209999999999,0.0
51741.0,STARLINK-3520,PAYLOAD,2023-01-28 08:36:49,15.08847317,0.0001182,53.2153,20.3148,86.1357,273.977,0.00019438,2.808e-05,0.0,0 STARLINK-3520,1 51741U 22016AD  23028.35890429  .00002808  00000-0  19438-3 0  9990,2 51741  53.2153  20.3148 0001182  86.1357 273.9770 15.08847317 52016,6917.858,95.437,540.541,538.905,0.0
51741.0,STARLINK-3520,PAYLOAD,2023-01-29 08:27:35,15.08857743,0.0001234,53.2153,15.8533,92.5905,267.5229,0.00045186,6.914e-05,0.0,0 STARLINK-3520,1 51741U 22016AD  23029.35249666  .00006914  00000-0  45186-3 0  9993,2 51741  53.2153  15.8533 0001234  92.5905 267.5229 15.08857743 53272,6917.826,95.436,540.545,538.837,0.0
51741.0,STARLINK-3520,PAYLOAD,2023-01-29 22:46:04,15.08842595,0.000142,53.2155,13.1778,81.555,278.5604,9.5893e-05,1.239e-05,0.0,0 STARLINK-3520,1 51741U 22016AD  23029.94866382  .00001239  00000-0  95893-4 0  9994,2 51741  53.2155  13.1778 0001420  81.5550 278.5604 15.08842595 52252,6917.872,95.437,540.72,538.755,0.0
51741.0,STARLINK-3520,PAYLOAD,2023-01-30 08:18:23,15.08840965,0.0001365,53.2153,11.3925,82.8802,277.2345,0.00012137,1.644e-05,0.0,0 STARLINK-3520,1 51741U 22016AD  23030.34610453  .00001644  00000-0  12137-3 0  9995,2 51741  53.2153  11.3925 0001365  82.8802 277.2345 15.08840965 53423,6917.877,95.437,540.687,538.798,0.0
51741.0,STARLINK-3520,PAYLOAD,2023-01-30 22:36:51,15.08844165,0.0001371,53.2152,8.7158,82.9856,277.1292,0.00021124,3.076e-05,0.0,0 STARLINK-3520,1 51741U 22016AD  23030.94226416  .00003076  00000-0  21124-3 0  9990,2 51741  53.2152   8.7158 0001371  82.9856 277.1292 15.08844165 52400,6917.868,95.437,540.681,538.784,0.0
51741.0,STARLINK-3520,PAYLOAD,2023-01-31 08:09:10,15.08853557,0.0001429,53.2154,6.9317,84.7162,275.3993,0.00043695,6.675e-05,0.0,0 STARLINK-3520,1 51741U 22016AD  23031.33970060  .00006675  00000-0  43695-3 0  9990,2 51741  53.2154   6.9317 0001429  84.7162 275.3993 15.08853557 52462,6917.839,95.437,540.693,538.715,0.0
51741.0,STARLINK-3520,PAYLOAD,2023-02-01 06:24:33,15.08850314,0.0001408,53.217,2.769,88.8794,271.2359,0.00024198,3.566e-05,0.0,0 STARLINK-3520,1 51741U 22016AD  23032.26705779  .00003566  00000-0  24198-3 0  9999,2 51741  53.2170   2.7690 0001408  88.8794 271.2359 15.08850314 53719,6917.849,95.437,540.688,538.74,0.0
51741.0,STARLINK-3520,PAYLOAD,2023-02-01 07:59:56,15.08852738,0.0001406,53.2156,2.4713,90.4632,269.6522,0.00028157,4.198e-05,0.0,0 STARLINK-3520,1 51741U 22016AD  23032.33329714  .00004198  00000-0  28157-3 0  9999,2 51741  53.2156   2.4713 0001406  90.4632 269.6522 15.08852738 52617,6917.841,95.437,540.679,538.734,0.0
51741.0,STARLINK-3520,PAYLOAD,2023-02-02 03:04:35,15.08834045,0.0001351,53.2153,358.9019,87.1679,272.9468,-9.9664e-05,-1.873e-05,0.0,0 STARLINK-3520,1 51741U 22016AD  23033.12818675 -.00001873  00000-0 -99664-4 0  9997,2 51741  53.2153 358.9019 0001351  87.1679 272.9468 15.08834045 53848,6917.899,95.438,540.698,538.829,0.0
51741.0,STARLINK-3520,PAYLOAD,2023-02-02 07:50:44,15.08836712,0.0001337,53.2157,358.0105,81.3165,278.7979,-4.8775e-05,-1.064e-05,0.0,0 STARLINK-3520,1 51741U 22016AD  23033.32690606 -.00001064  00000-0 -48775-4 0  9990,2 51741  53.2157 358.0105 0001337  81.3165 278.7979 15.08836712 52763,6917.89,95.438,540.68,538.831,0.0
51741.0,STARLINK-3520,PAYLOAD,2023-02-02 22:09:12,15.08841486,0.0001309,53.2166,355.3346,86.2773,273.8369,6.8659e-05,8.05e-06,0.0,0 STARLINK-3520,1 51741U 22016AD  23033.92306426  .00000805  00000-0  68659-4 0  9993,2 51741  53.2166 355.3346 0001309  86.2773 273.8369 15.08841486 53964,6917.876,95.437,540.646,538.835,0.0
51741.0,STARLINK-3520,PAYLOAD,2023-02-03 06:06:08,15.08854804,0.0001294,53.2163,353.8479,85.2349,274.8791,0.00038195,5.798e-05,0.0,0 STARLINK-3520,1 51741U 22016AD  23034.25425934  .00005798  00000-0  38195-3 0  9993,2 51741  53.2163 353.8479 0001294  85.2349 274.8791 15.08854804 54017,6917.835,95.437,540.595,538.805,0.0
51741.0,STARLINK-3520,PAYLOAD,2023-02-04 05:56:55,15.08851914,0.0001517,53.2166,349.3876,85.8441,274.2725,0.00040153,6.11e-05,0.0,0 STARLINK-3520,1 51741U 22016AD  23035.24786269  .00006110  00000-0  40153-3 0  9990,2 51741  53.2166 349.3876 0001517  85.8441 274.2725 15.08851914 54164,6917.844,95.437,540.758,538.66,0.0
51741.0,STARLINK-3520,PAYLOAD,2023-02-04 21:50:47,15.08837022,0.0001436,53.2163,346.4137,97.7069,262.4087,0.00054677,8.424e-05,0.0,0 STARLINK-3520,1 51741U 22016AD  23035.91026674  .00008424  00000-0  54677-3 0  9997,2 51741  53.2163 346.4137 0001436  97.7069 262.4087 15.08837022 54262,6917.889,95.438,540.748,538.761,0.0
51741.0,STARLINK-3520,PAYLOAD,2023-02-05 05:47:42,15.0883972,0.0001258,53.2161,344.9271,88.7996,271.314,0.00041179,6.272e-05,0.0,0 STARLINK-3520,1 51741U 22016AD  23036.24146747  .00006272  00000-0  41179-3 0  9990,2 51741  53.2161 344.9271 0001258  88.7996 271.3140 15.08839720 53202,6917.881,95.438,540.617,538.876,0.0
51741.0,STARLINK-3520,PAYLOAD,2023-02-05 20:06:11,15.08839306,0.0001279,53.2161,342.2505,91.4624,268.6515,0.00028372,4.23e-05,0.0,0 STARLINK-3520,1 51741U 22016AD  23036.83763021  .00004230  00000-0  28372-3 0  9997,2 51741  53.2161 342.2505 0001279  91.4624 268.6515 15.08839306 54403,6917.883,95.438,540.632,538.863,0.0
51741.0,STARLINK-3520,PAYLOAD,2023-02-06 05:38:29,15.08857716,0.0001317,53.216,340.466,90.5543,269.56,0.00080754,0.00012594,0.0,0 STARLINK-3520,1 51741U 22016AD  23037.23506637  .00012594  00000-0  80754-3 0  9994,2 51741  53.2160 340.4660 0001317  90.5543 269.5600 15.08857716 54463,6917.826,95.436,540.602,538.78,0.0
51741.0,STARLINK-3520,PAYLOAD,2023-02-07 05:29:16,15.08869647,0.0001439,53.2163,336.0061,82.5961,277.5195,0.0011755,0.00018485,0.0,0 STARLINK-3520,1 51741U 22016AD  23038.22866260  .00018485  00000-0  11755-2 0  9994,2 51741  53.2163 336.0061 0001439  82.5961 277.5195 15.08869647 54613,6917.79,95.436,540.65,538.659,0.0
51741.0,STARLINK-3520,PAYLOAD,2023-02-07 19:47:44,15.08837944,0.0001227,53.2168,333.3294,105.0769,255.0359,0.00023088,3.388e-05,0.0,0 STARLINK-3520,1 51741U 22016AD  23038.82482395  .00003388  00000-0  23088-3 0  9992,2 51741  53.2168 333.3294 0001227 105.0769 255.0359 15.08837944 53592,6917.887,95.438,540.6,538.903,0.0
51741.0,STARLINK-3520,PAYLOAD,2023-02-07 22:58:31,15.08843872,0.000119,53.2167,332.7344,100.3133,259.7993,0.00021034,3.062e-05,0.0,0 STARLINK-3520,1 51741U 22016AD  23038.95730338  .00003062  00000-0  21034-3 0  9997,2 51741  53.2167 332.7344 0001190 100.3133 259.7993 15.08843872 54720,6917.869,95.437,540.557,538.91,0.0
51741.0,STARLINK-3520,PAYLOAD,2023-02-08 05:20:03,15.08863619,0.0001231,53.2163,331.5461,82.7785,277.3347,0.0015776,0.00024925,0.0,0 STARLINK-3520,1 51741U 22016AD  23039.22226176  .00024925  00000-0  15776-2 0  9994,2 51741  53.2163 331.5461 0001231  82.7785 277.3347 15.08863619 54769,6917.808,95.436,540.525,538.822,0.0
51741.0,STARLINK-3520,PAYLOAD,2023-02-09 02:00:04,15.08867397,0.0001126,53.2168,327.6814,93.2895,266.8226,0.0026813,0.00042676,0.0,0 STARLINK-3520,1 51741U 22016AD  23040.08338594  .00042676  00000-0  26813-2 0  9995,2 51741  53.2168 327.6814 0001126  93.2895 266.8226 15.08867397 54894,6917.797,95.436,540.441,538.883,0.0
51741.0,STARLINK-3520,PAYLOAD,2023-02-10 01:50:51,15.08884457,0.0002084,53.2158,323.221,94.222,265.9011,0.002954,0.00047097,0.0,0 STARLINK-3520,1 51741U 22016AD  23041.07698575  .00047097  00000-0  29540-2 0  9995,2 51741  53.2158 323.2210 0002084  94.2220 265.9011 15.08884457 53934,6917.745,95.435,541.051,538.168,0.0
